[Satellite]
VERSION=1.1
NAME=TEAMSAT
NICKNAME=TEAMSAT
TLE1=1 25025U 97066C   11058.78052412 -.00000268  00000-0 -43065-3 0  9614
TLE2=2 25025   7.6510 239.1667 6524310  92.2698 338.0098  3.07919076150005
